IRIDIUM 136             
1 42962U 17061H   24161.93984254  .00000074  00000+0  19379-4 0  9999
2 42962  86.3963 333.3511 0001829  85.6656 274.4749 14.34216823349169
